[{"OBJECT_NAME":"ORBCOMM FM105","OBJECT_ID":"2015-081C","EPOCH":"2026-03-03T00:53:16.010304","MEAN_MOTION":14.45486898,"ECCENTRICITY":0.0001317,"INCLINATION":47.0007,"RA_OF_ASC_NODE":83.5002,"ARG_OF_PERICENTER":6.5816,"MEAN_ANOMALY":353.5081,"EPHEMERIS_TYPE":0,"CLASSIFICATION_TYPE":"U","NORAD_CAT_ID":41181,"ELEMENT_SET_NO":999,"REV_AT_EPOCH":53819,"BSTAR":0.00012657,"MEAN_MOTION_DOT":2.92e-6,"MEAN_MOTION_DDOT":0},{"OBJECT_NAME":"ORBCOMM FM110","OBJECT_ID":"2015-081D","EPOCH":"2026-03-02T14:28:08.400000","MEAN_MOTION":14.58717336,"ECCENTRICITY":0.0003561,"INCLINATION":47.0014,"RA_OF_ASC_NODE":145.3457,"ARG_OF_PERICENTER":291.4189,"MEAN_ANOMALY":68.6316,"EPHEMERIS_TYPE":0,"CLASSIFICATION_TYPE":"U","NORAD_CAT_ID":41182,"ELEMENT_SET_NO":999,"REV_AT_EPOCH":54206,"BSTAR":0.00028484,"MEAN_MOTION_DOT":1.171e-5,"MEAN_MOTION_DDOT":0},{"OBJECT_NAME":"ORBCOMM FM118","OBJECT_ID":"2015-081E","EPOCH":"2026-03-03T04:26:58.500384","MEAN_MOTION":14.58714336,"ECCENTRICITY":0.0003908,"INCLINATION":47.0035,"RA_OF_ASC_NODE":142.9056,"ARG_OF_PERICENTER":262.8675,"MEAN_ANOMALY":97.1767,"EPHEMERIS_TYPE":0,"CLASSIFICATION_TYPE":"U","NORAD_CAT_ID":41183,"ELEMENT_SET_NO":999,"REV_AT_EPOCH":54225,"BSTAR":0.00026303,"MEAN_MOTION_DOT":1.068e-5,"MEAN_MOTION_DDOT":0},{"OBJECT_NAME":"ORBCOMM FM112","OBJECT_ID":"2015-081F","EPOCH":"2026-03-02T03:51:46.782432","MEAN_MOTION":14.58714074,"ECCENTRICITY":0.00010497,"INCLINATION":46.9993,"RA_OF_ASC_NODE":56.2504,"ARG_OF_PERICENTER":41.3329,"MEAN_ANOMALY":318.7636,"EPHEMERIS_TYPE":0,"CLASSIFICATION_TYPE":"U","NORAD_CAT_ID":41184,"ELEMENT_SET_NO":999,"REV_AT_EPOCH":54332,"BSTAR":0.00022380279,"MEAN_MOTION_DOT":8.84e-6,"MEAN_MOTION_DDOT":0},{"OBJECT_NAME":"ORBCOMM FM113","OBJECT_ID":"2015-081G","EPOCH":"2026-03-03T00:41:10.257216","MEAN_MOTION":14.58716667,"ECCENTRICITY":6.02e-5,"INCLINATION":47.001,"RA_OF_ASC_NODE":52.5158,"ARG_OF_PERICENTER":53.955,"MEAN_ANOMALY":306.1391,"EPHEMERIS_TYPE":0,"CLASSIFICATION_TYPE":"U","NORAD_CAT_ID":41185,"ELEMENT_SET_NO":999,"REV_AT_EPOCH":54343,"BSTAR":0.00020945,"MEAN_MOTION_DOT":8.16e-6,"MEAN_MOTION_DDOT":0},{"OBJECT_NAME":"ORBCOMM FM115","OBJECT_ID":"2015-081H","EPOCH":"2026-03-02T22:02:56.721120","MEAN_MOTION":14.63103599,"ECCENTRICITY":0.0001113,"INCLINATION":46.9973,"RA_OF_ASC_NODE":248.4775,"ARG_OF_PERICENTER":202.976,"MEAN_ANOMALY":157.1077,"EPHEMERIS_TYPE":0,"CLASSIFICATION_TYPE":"U","NORAD_CAT_ID":41186,"ELEMENT_SET_NO":999,"REV_AT_EPOCH":54565,"BSTAR":0.0002124,"MEAN_MOTION_DOT":9.25e-6,"MEAN_MOTION_DDOT":0},{"OBJECT_NAME":"ORBCOMM FM108","OBJECT_ID":"2015-081J","EPOCH":"2026-03-03T03:04:39.690624","MEAN_MOTION":14.58728544,"ECCENTRICITY":0.0002219,"INCLINATION":47.006,"RA_OF_ASC_NODE":323.5848,"ARG_OF_PERICENTER":56.0117,"MEAN_ANOMALY":304.0979,"EPHEMERIS_TYPE":0,"CLASSIFICATION_TYPE":"U","NORAD_CAT_ID":41187,"ELEMENT_SET_NO":999,"REV_AT_EPOCH":54459,"BSTAR":0.00028386,"MEAN_MOTION_DOT":1.167e-5,"MEAN_MOTION_DDOT":0},{"OBJECT_NAME":"ORBCOMM FM117","OBJECT_ID":"2015-081K","EPOCH":"2026-03-03T02:15:00.449280","MEAN_MOTION":14.58720328,"ECCENTRICITY":0.0002543,"INCLINATION":47.0023,"RA_OF_ASC_NODE":322.4166,"ARG_OF_PERICENTER":66.8447,"MEAN_ANOMALY":293.2706,"EPHEMERIS_TYPE":0,"CLASSIFICATION_TYPE":"U","NORAD_CAT_ID":41188,"ELEMENT_SET_NO":999,"REV_AT_EPOCH":54463,"BSTAR":0.00027116,"MEAN_MOTION_DOT":1.107e-5,"MEAN_MOTION_DDOT":0},{"OBJECT_NAME":"ORBCOMM FM116","OBJECT_ID":"2015-081L","EPOCH":"2026-03-03T03:25:57.068832","MEAN_MOTION":14.58710608,"ECCENTRICITY":0.0002691,"INCLINATION":47.0028,"RA_OF_ASC_NODE":51.9647,"ARG_OF_PERICENTER":289.7792,"MEAN_ANOMALY":70.2803,"EPHEMERIS_TYPE":0,"CLASSIFICATION_TYPE":"U","NORAD_CAT_ID":41189,"ELEMENT_SET_NO":999,"REV_AT_EPOCH":54345,"BSTAR":0.00023956,"MEAN_MOTION_DOT":9.58e-6,"MEAN_MOTION_DDOT":0}]
